[{"OBJECT_NAME":"JILIN-1 KUANFU-01B","OBJECT_ID":"2021-061A","EPOCH":"2026-03-09T22:54:34.499808","MEAN_MOTION":15.09454544,"ECCENTRICITY":0.00089006,"INCLINATION":97.5272,"RA_OF_ASC_NODE":146.9765,"ARG_OF_PERICENTER":57.5197,"MEAN_ANOMALY":302.6891,"EPHEMERIS_TYPE":0,"CLASSIFICATION_TYPE":"U","NORAD_CAT_ID":49003,"ELEMENT_SET_NO":999,"REV_AT_EPOCH":25837,"BSTAR":0.00023291265,"MEAN_MOTION_DOT":3.668e-5,"MEAN_MOTION_DDOT":0},{"OBJECT_NAME":"PEGASUS DEB","OBJECT_ID":"1994-029YW","EPOCH":"2026-03-09T00:40:55.338528","MEAN_MOTION":14.11561087,"ECCENTRICITY":0.04478792,"INCLINATION":81.4462,"RA_OF_ASC_NODE":93.0128,"ARG_OF_PERICENTER":250.1381,"MEAN_ANOMALY":105.1008,"EPHEMERIS_TYPE":0,"CLASSIFICATION_TYPE":"U","NORAD_CAT_ID":24594,"ELEMENT_SET_NO":999,"REV_AT_EPOCH":49351,"BSTAR":0.0015343637,"MEAN_MOTION_DOT":7.284e-5,"MEAN_MOTION_DDOT":0}]
